[
    {
        "Altitude(m)": 624792.7618690351,
        "Argument of Periapsis(deg)": 0.0,
        "Eccentricity": 0.0,
        "Inclination(deg)": 60.0,
        "Latitude(deg)": -59.147056639611414,
        "Longitude(deg)": 24.02656598424194,
        "Mean Anomaly(deg)": -98.18179999999994,
        "RAAN(deg)": 229.99999999999997,
        "Satellite Name": "Test1 1028",
        "Satellite Number": 1028,
        "Semi-Major Axis(m)": 6980739.136638005,
        "Time(s)": 0
    },
    {
        "Altitude(m)": 624842.1532979414,
        "Argument of Periapsis(deg)": 0.00010418945913296404,
        "Eccentricity": 0.0,
        "Inclination(deg)": 60.0,
        "Latitude(deg)": -59.28913830799806,
        "Longitude(deg)": 25.156069919575827,
        "Mean Anomaly(deg)": -97.56169385453809,
        "RAAN(deg)": 229.99957995086024,
        "Satellite Name": "Test1 1028",
        "Satellite Number": 1028,
        "Semi-Major Axis(m)": 6980739.136638005,
        "Time(s)": 10
    },
    {
        "Altitude(m)": 624887.7204689579,
        "Argument of Periapsis(deg)": 0.0002083789182659281,
        "Eccentricity": 0.0,
        "Inclination(deg)": 60.0,
        "Latitude(deg)": -59.42060912245306,
        "Longitude(deg)": 26.294994264015585,
        "Mean Anomaly(deg)": -96.94158770907633,
        "RAAN(deg)": 229.99915990172047,
        "Satellite Name": "Test1 1028",
        "Satellite Number": 1028,
        "Semi-Major Axis(m)": 6980739.136638005,
        "Time(s)": 20
    },
    {
        "Altitude(m)": 624929.445419026,
        "Argument of Periapsis(deg)": 0.00031256837739889213,
        "Eccentricity": 0.0,
        "Inclination(deg)": 60.0,
        "Latitude(deg)": -59.54133178375756,
        "Longitude(deg)": 27.44271670866491,
        "Mean Anomaly(deg)": -96.32148156361443,
        "RAAN(deg)": 229.99873985258077,
        "Satellite Name": "Test1 1028",
        "Satellite Number": 1028,
        "Semi-Major Axis(m)": 6980739.136638005,
        "Time(s)": 30
    },
    {
        "Altitude(m)": 624967.3116962585,
        "Argument of Periapsis(deg)": 0.0004167578365318562,
        "Eccentricity": 0.0,
        "Inclination(deg)": 60.0,
        "Latitude(deg)": -59.65117812617867,
        "Longitude(deg)": 28.59857996038267,
        "Mean Anomaly(deg)": -95.70137541815268,
        "RAAN(deg)": 229.998319803441,
        "Satellite Name": "Test1 1028",
        "Satellite Number": 1028,
        "Semi-Major Axis(m)": 6980739.136638005,
        "Time(s)": 40
    },
    {
        "Altitude(m)": 625001.3043668659,
        "Argument of Periapsis(deg)": 0.0005209472956648203,
        "Eccentricity": 0.0,
        "Inclination(deg)": 60.0,
        "Latitude(deg)": -59.75002975655166,
        "Longitude(deg)": 29.76189257854687,
        "Mean Anomaly(deg)": -95.08126927269083,
        "RAAN(deg)": 229.99789975430127,
        "Satellite Name": "Test1 1028",
        "Satellite Number": 1028,
        "Semi-Major Axis(m)": 6980739.136638005,
        "Time(s)": 50
    },
    {
        "Altitude(m)": 625031.4100214536,
        "Argument of Periapsis(deg)": 0.0006251367547977843,
        "Eccentricity": 0.0,
        "Inclination(deg)": 60.0,
        "Latitude(deg)": -59.8377786602845,
        "Longitude(deg)": 30.931931649380438,
        "Mean Anomaly(deg)": -94.46116312722907,
        "RAAN(deg)": 229.9974797051615,
        "Satellite Name": "Test1 1028",
        "Satellite Number": 1028,
        "Semi-Major Axis(m)": 6980739.136638005,
        "Time(s)": 60
    },
    {
        "Altitude(m)": 625057.6167806798,
        "Argument of Periapsis(deg)": 0.0007293262139307483,
        "Eccentricity": 0.0,
        "Inclination(deg)": 60.0,
        "Latitude(deg)": -59.91432776745233,
        "Longitude(deg)": 32.107945774736294,
        "Mean Anomaly(deg)": -93.84105698176717,
        "RAAN(deg)": 229.9970596560218,
        "Satellite Name": "Test1 1028",
        "Satellite Number": 1028,
        "Semi-Major Axis(m)": 6980739.136638005,
        "Time(s)": 70
    },
    {
        "Altitude(m)": 625079.9143002334,
        "Argument of Periapsis(deg)": 0.0008335156730637124,
        "Eccentricity": 0.0,
        "Inclination(deg)": 60.0,
        "Latitude(deg)": -59.97959147235401,
        "Longitude(deg)": 33.289156846559294,
        "Mean Anomaly(deg)": -93.22095083630542,
        "RAAN(deg)": 229.99663960688204,
        "Satellite Name": "Test1 1028",
        "Satellite Number": 1028,
        "Semi-Major Axis(m)": 6980739.136638005,
        "Time(s)": 80
    },
    {
        "Altitude(m)": 625098.2937752224,
        "Argument of Periapsis(deg)": 0.0009377051321966765,
        "Eccentricity": 0.0,
        "Inclination(deg)": 60.0,
        "Latitude(deg)": -60.033496100249124,
        "Longitude(deg)": 34.474763611375934,
        "Mean Anomaly(deg)": -92.60084469084357,
        "RAAN(deg)": 229.9962195577423,
        "Satellite Name": "Test1 1028",
        "Satellite Number": 1028,
        "Semi-Major Axis(m)": 6980739.136638005,
        "Time(s)": 90
    },
    {
        "Altitude(m)": 625112.7479438563,
        "Argument of Periapsis(deg)": 0.0010418945913296407,
        "Eccentricity": 0.0,
        "Inclination(deg)": 60.0,
        "Latitude(deg)": -60.07598031548598,
        "Longitude(deg)": 35.663945485233846,
        "Mean Anomaly(deg)": -91.98073854538171,
        "RAAN(deg)": 229.99579950860254,
        "Satellite Name": "Test1 1028",
        "Satellite Number": 1028,
        "Semi-Major Axis(m)": 6980739.136638005,
        "Time(s)": 100
    },
    {
        "Altitude(m)": 625123.2710905108,
        "Argument of Periapsis(deg)": 0.0011460840504626045,
        "Eccentricity": 0.0,
        "Inclination(deg)": 60.0,
        "Latitude(deg)": -60.106995465840754,
        "Longitude(deg)": 36.85586507458955,
        "Mean Anomaly(deg)": -91.36063239991991,
        "RAAN(deg)": 229.99537945946284,
        "Satellite Name": "Test1 1028",
        "Satellite Number": 1028,
        "Semi-Major Axis(m)": 6980739.136638005,
        "Time(s)": 110
    },
    {
        "Altitude(m)": 625129.8590481393,
        "Argument of Periapsis(deg)": 0.0012502735095955685,
        "Eccentricity": 0.0,
        "Inclination(deg)": 60.0,
        "Latitude(deg)": -60.12650585860723,
        "Longitude(deg)": 38.04967239281641,
        "Mean Anomaly(deg)": -90.74052625445806,
        "RAAN(deg)": 229.99495941032308,
        "Satellite Name": "Test1 1028",
        "Satellite Number": 1028,
        "Semi-Major Axis(m)": 6980739.136638005,
        "Time(s)": 120
    },
    {
        "Altitude(m)": 625132.5092000302,
        "Argument of Periapsis(deg)": 0.0013544629687285324,
        "Eccentricity": 0.0,
        "Inclination(deg)": 60.0,
        "Latitude(deg)": -60.13448896481223,
        "Longitude(deg)": 39.24450921961448,
        "Mean Anomaly(deg)": -90.12042010899621,
        "RAAN(deg)": 229.99453936118334,
        "Satellite Name": "Test1 1028",
        "Satellite Number": 1028,
        "Semi-Major Axis(m)": 6980739.136638005,
        "Time(s)": 130
    },
    {
        "Altitude(m)": 625131.2204809078,
        "Argument of Periapsis(deg)": 0.0014586524278614966,
        "Eccentricity": 0.0,
        "Inclination(deg)": 60.0,
        "Latitude(deg)": -60.13093554884456,
        "Longitude(deg)": 40.43951204760407,
        "Mean Anomaly(deg)": -89.50031396353435,
        "RAAN(deg)": 229.99411931204358,
        "Satellite Name": "Test1 1028",
        "Satellite Number": 1028,
        "Semi-Major Axis(m)": 6980739.136638005,
        "Time(s)": 140
    },
    {
        "Altitude(m)": 625125.9933773748,
        "Argument of Periapsis(deg)": 0.0015628418869944607,
        "Eccentricity": 0.0,
        "Inclination(deg)": 60.0,
        "Latitude(deg)": -60.11584972175648,
        "Longitude(deg)": 41.633816596864236,
        "Mean Anomaly(deg)": -88.88020781807256,
        "RAAN(deg)": 229.99369926290387,
        "Satellite Name": "Test1 1028",
        "Satellite Number": 1028,
        "Semi-Major Axis(m)": 6980739.136638005,
        "Time(s)": 150
    },
    {
        "Altitude(m)": 625116.8299277283,
        "Argument of Periapsis(deg)": 0.0016670313461274247,
        "Eccentricity": 0.0,
        "Inclination(deg)": 60.0,
        "Latitude(deg)": -60.08924891752286,
        "Longitude(deg)": 42.82656233838763,
        "Mean Anomaly(deg)": -88.2601016726107,
        "RAAN(deg)": 229.99327921376414,
        "Satellite Name": "Test1 1028",
        "Satellite Number": 1028,
        "Semi-Major Axis(m)": 6980739.136638005,
        "Time(s)": 160
    },
    {
        "Altitude(m)": 625103.7337210852,
        "Argument of Periapsis(deg)": 0.0017712208052603888,
        "Eccentricity": 0.0,
        "Inclination(deg)": 60.0,
        "Latitude(deg)": -60.05116379257996,
        "Longitude(deg)": 44.01689546723175,
        "Mean Anomaly(deg)": -87.63999552714884,
        "RAAN(deg)": 229.99285916462438,
        "Satellite Name": "Test1 1028",
        "Satellite Number": 1028,
        "Semi-Major Axis(m)": 6980739.136638005,
        "Time(s)": 170
    },
    {
        "Altitude(m)": 625086.7098958947,
        "Argument of Periapsis(deg)": 0.001875410264393353,
        "Eccentricity": 0.0,
        "Inclination(deg)": 60.0,
        "Latitude(deg)": -60.00163804998787,
        "Longitude(deg)": 45.20397330556028,
        "Mean Anomaly(deg)": -87.019889381687,
        "RAAN(deg)": 229.99243911548461,
        "Satellite Name": "Test1 1028",
        "Satellite Number": 1028,
        "Semi-Major Axis(m)": 6980739.136638005,
        "Time(s)": 180
    },
    {
        "Altitude(m)": 625065.7651377632,
        "Argument of Periapsis(deg)": 0.0019795997235263173,
        "Eccentricity": 0.0,
        "Inclination(deg)": 60.0,
        "Latitude(deg)": -59.94072819056395,
        "Longitude(deg)": 46.386968578929306,
        "Mean Anomaly(deg)": -86.3997832362252,
        "RAAN(deg)": 229.9920190663449,
        "Satellite Name": "Test1 1028",
        "Satellite Number": 1028,
        "Semi-Major Axis(m)": 6980739.136638005,
        "Time(s)": 190
    }
]